$$SOE
2460154.500000000, A.D. 2023-Jul-29 00:00:00.0000, -1.720114080536339E+08, 3.643795983594981E+07, -1.068120278101244E+07,
2460161.500000000, A.D. 2023-Aug-05 00:00:00.0000, -1.714951004610226E+08, 2.090007622899840E+07, -9.738969096955968E+06,
2460168.500000000, A.D. 2023-Aug-12 00:00:00.0000, -1.693722509650936E+08, 5.167754005558390E+06, -8.705578496033328E+06,
2460175.500000000, A.D. 2023-Aug-19 00:00:00.0000, -1.655666779192377E+08, -1.061431819834215E+07, -7.585787955229258E+06,
2460182.500000000, A.D. 2023-Aug-26 00:00:00.0000, -1.600073040197003E+08, -2.628206626843730E+07, -6.385751345981069E+06,
2460189.500000000, A.D. 2023-Sep-02 00:00:00.0000, -1.526313962085614E+08, -4.164917753406579E+07, -5.113348448390139E+06,
2460196.500000000, A.D. 2023-Sep-09 00:00:00.0000, -1.433890582649295E+08, -5.650425706673136E+07, -3.778575560850959E+06,
2460203.500000000, A.D. 2023-Sep-16 00:00:00.0000, -1.322493072109987E+08, -7.060830462147050E+07, -2.393995797668558E+06,
2460210.500000000, A.D. 2023-Sep-23 00:00:00.0000, -1.192080718986979E+08, -8.369303004608002E+07, -9.752353271782883E+05,
2460217.500000000, A.D. 2023-Sep-30 00:00:00.0000, -1.042983791121777E+08, -9.546081000781317E+07, 4.585088690461367E+05,
2460224.500000000, A.D. 2023-Oct-07 00:00:00.0000, -8.760276625756736E+07, -1.055874463027988E+08, 1.884016482740909E+06,
2460231.500000000, A.D. 2023-Oct-14 00:00:00.0000, -6.926747386856891E+07, -1.137292549499996E+08, 3.273758365730673E+06,
2460238.500000000, A.D. 2023-Oct-21 00:00:00.0000, -4.951713165085818E+07, -1.195362347503860E+08, 4.595944740174480E+06,
2460245.500000000, A.D. 2023-Oct-28 00:00:00.0000, -2.866743815513486E+07, -1.226728612773844E+08, 5.815122844708972E+06,
2460252.500000000, A.D. 2023-Nov-04 00:00:00.0000, -7.131927040086863E+06, -1.228470281416745E+08, 6.893548653001815E+06,
2460259.500000000, A.D. 2023-Nov-11 00:00:00.0000, 1.458210263963239E+07, -1.198454648090183E+08, 7.793478169304803E+06,
2460266.500000000, A.D. 2023-Nov-18 00:00:00.0000, 3.589304069154038E+07, -1.135707172175297E+08, 8.480314082793005E+06,
2460273.500000000, A.D. 2023-Nov-25 00:00:00.0000, 5.618159462031233E+07, -1.040715298295925E+08, 8.926215144512277E+06,
2460280.500000000, A.D. 2023-Dec-02 00:00:00.0000, 7.484119846213238E+07, -9.155720872996931E+07, 9.113443883431841E+06,
2460287.500000000, A.D. 2023-Dec-09 00:00:00.0000, 9.133299934573898E+07, -7.638916362950630E+07, 9.036594750549201E+06,
2460294.500000000, A.D. 2023-Dec-16 00:00:00.0000, 1.052330080848482E+08, -5.904928039180203E+07, 8.703066660093958E+06,
2460301.500000000, A.D. 2023-Dec-23 00:00:00.0000, 1.162608099731480E+08, -4.009223762795714E+07, 8.131673834347888E+06,
2460308.500000000, A.D. 2023-Dec-30 00:00:00.0000, 1.242854416831186E+08, -2.009338994246817E+07, 7.349862926836038E+06,
2460315.500000000, A.D. 2024-Jan-06 00:00:00.0000, 1.293112247783541E+08, 3.966783631295622E+05, 6.390329744356488E+06,
2460322.500000000, A.D. 2024-Jan-13 00:00:00.0000, 1.314509766895564E+08, 2.088420779095549E+07, 5.287799442062980E+06,
2460329.500000000, A.D. 2024-Jan-20 00:00:00.0000, 1.308948233298746E+08, 4.094948649518517E+07, 4.076463322571598E+06,
2460336.500000000, A.D. 2024-Jan-27 00:00:00.0000, 1.278808803820561E+08, 6.025158509291390E+07, 2.788245211378399E+06,
2460343.500000000, A.D. 2024-Feb-03 00:00:00.0000, 1.226712172327757E+08, 7.852452299885288E+07, 1.451835438203767E+06,
2460350.500000000, A.D. 2024-Feb-10 00:00:00.0000, 1.155341069722036E+08, 9.556868074568357E+07, 9.231708002460003E+04,
2460357.500000000, A.D. 2024-Feb-17 00:00:00.0000, 1.067320821489455E+08, 1.112403612372403E+08, -1.268810635227956E+06,
2460364.500000000, A.D. 2024-Feb-24 00:00:00.0000, 9.651466638444856E+07, 1.254413522799849E+08, -2.613377088759579E+06,
2460371.500000000, A.D. 2024-Mar-02 00:00:00.0000, 8.511454118120776E+07, 1.381094826105911E+08, -3.926173275395542E+06,
2460378.500000000, A.D. 2024-Mar-09 00:00:00.0000, 7.274606241015217E+07, 1.492105780595310E+08, -5.194550909736954E+06,
2460385.500000000, A.D. 2024-Mar-16 00:00:00.0000, 5.960528315327497E+07, 1.587318784065013E+08, -6.408033059014916E+06,
2460392.500000000, A.D. 2024-Mar-23 00:00:00.0000, 4.587087530042889E+07, 1.666767995208897E+08, -7.557959469425432E+06,
2460399.500000000, A.D. 2024-Mar-30 00:00:00.0000, 3.170553423223523E+07, 1.730608523776579E+08, -8.637175797289416E+06,
2460406.500000000, A.D. 2024-Apr-06 00:00:00.0000, 1.725759838929357E+07, 1.779085139465908E+08, -9.639768420163691E+06,
2460413.500000000, A.D. 2024-Apr-13 00:00:00.0000, 2.662721305007537E+06, 1.812508649756245E+08, -1.056084235290764E+07,
2460420.500000000, A.D. 2024-Apr-20 00:00:00.0000, -1.195450165974347E+07, 1.831238381343203E+08, -1.139633740332618E+07,
2460427.500000000, A.D. 2024-Apr-27 00:00:00.0000, -2.647900541004161E+07, 1.835669457453904E+08, -1.214287736454601E+07,
2460434.500000000, A.D. 2024-May-04 00:00:00.0000, -4.080384970418692E+07, 1.826223832694667E+08, -1.279764739805987E+07,
2460441.500000000, A.D. 2024-May-11 00:00:00.0000, -5.482894266761874E+07, 1.803344286099054E+08, -1.335829525834236E+07,
2460448.500000000, A.D. 2024-May-18 00:00:00.0000, -6.845989008223097E+07, 1.767490767266779E+08, -1.382285264136754E+07,
2460455.500000000, A.D. 2024-May-25 00:00:00.0000, -8.160696233037153E+07, 1.719138646809009E+08, -1.418967361063799E+07,
2460462.500000000, A.D. 2024-Jun-01 00:00:00.0000, -9.418416880632669E+07, 1.658778547848736E+08, -1.445738770382517E+07,
2460469.500000000, A.D. 2024-Jun-08 00:00:00.0000, -1.061084292965548E+08, 1.586917537298106E+08, -1.462486592977608E+07,
2460476.500000000, A.D. 2024-Jun-15 00:00:00.0000, -1.172988328032381E+08, 1.504081544207618E+08, -1.469119837677217E+07,
2460483.500000000, A.D. 2024-Jun-22 00:00:00.0000, -1.276759777248012E+08, 1.410818947893905E+08, -1.465568248274521E+07,
2460490.500000000, A.D. 2024-Jun-29 00:00:00.0000, -1.371613912145058E+08, 1.307705308271806E+08, -1.451782166482367E+07,
2460497.500000000, A.D. 2024-Jul-06 00:00:00.0000, -1.456770242226148E+08, 1.195349256955714E+08, -1.427733498059364E+07,
2460504.500000000, A.D. 2024-Jul-13 00:00:00.0000, -1.531448238628330E+08, 1.074399667782006E+08, -1.393417848843218E+07,
2460511.500000000, A.D. 2024-Jul-20 00:00:00.0000, -1.594863944330220E+08, 9.455542555402122E+07, -1.348857937025503E+07,
2460518.500000000, A.D. 2024-Jul-27 00:00:00.0000, -1.646227640531727E+08, 8.095697745445868E+07, -1.294108474949887E+07,
2460525.500000000, A.D. 2024-Aug-03 00:00:00.0000, -1.684742819962603E+08, 6.672740299465095E+07, -1.229262766966478E+07,
2460532.500000000, A.D. 2024-Aug-10 00:00:00.0000, -1.709606843210454E+08, 5.195799433320174E+07, -1.154461334249011E+07,
2460539.500000000, A.D. 2024-Aug-17 00:00:00.0000, -1.720013824101758E+08, 3.675019272244848E+07, -1.069902986082717E+07,
2460546.500000000, A.D. 2024-Aug-24 00:00:00.0000, -1.715160507771527E+08, 2.121748117747872E+07, -9.758588794262961E+06,
2460553.500000000, A.D. 2024-Aug-31 00:00:00.0000, -1.694256180192161E+08, 5.487550176922787E+06, -8.726902033459432E+06,
2460560.500000000, A.D. 2024-Sep-07 00:00:00.0000, -1.656537998161192E+08, -1.029526139199391E+07, -7.608701933312340E+06,
2460567.500000000, A.D. 2024-Sep-14 00:00:00.0000, -1.601293569735313E+08, -2.596727734565075E+07, -6.410112038661096E+06,
2460574.500000000, A.D. 2024-Sep-21 00:00:00.0000, -1.527893147180210E+08, -4.134262850501549E+07, -5.138974939099468E+06,
2460581.500000000, A.D. 2024-Sep-28 00:00:00.0000, -1.435834313185721E+08, -5.621040305643293E+07, -3.805241717136849E+06,
2460588.500000000, A.D. 2024-Oct-05 00:00:00.0000, -1.324802435095399E+08, -7.033211104022194E+07, -2.421421584080599E+06,
2460595.500000000, A.D. 2024-Oct-12 00:00:00.0000, -1.194750289101807E+08, -8.343997373263600E+07, -1.003077984786458E+06,
2460602.500000000, A.D. 2024-Oct-19 00:00:00.0000, -1.045999554852449E+08, -9.523683661588055E+07, 4.306627901150286E+05,
2460609.500000000, A.D. 2024-Oct-26 00:00:00.0000, -8.793646165280910E+07, -1.053988602887929E+08, 1.856656366859004E+06,
2460616.500000000, A.D. 2024-Nov-02 00:00:00.0000, -6.962943326883796E+07, -1.135825109009666E+08, 3.247449605653837E+06,
2460623.500000000, A.D. 2024-Nov-09 00:00:00.0000, -4.990191322930153E+07, -1.194376015324894E+08, 4.571320436456598E+06,
2460630.500000000, A.D. 2024-Nov-16 00:00:00.0000, -2.906786587948103E+07, -1.226279454686155E+08, 5.792863217395335E+06,
2460637.500000000, A.D. 2024-Nov-23 00:00:00.0000, -7.539108624935141E+06, -1.228601734927419E+08, 6.874345015813224E+06,
2460644.500000000, A.D. 2024-Nov-30 00:00:00.0000, 1.417850862327268E+07, -1.199190949142808E+08, 7.777981179026261E+06,
2460651.500000000, A.D. 2024-Dec-07 00:00:00.0000, 3.550425784406777E+07, -1.137047475128681E+08, 8.469071020983770E+06,
2460658.500000000, A.D. 2024-Dec-14 00:00:00.0000, 5.581888872839723E+07, -1.042630121649938E+08, 8.919607227069870E+06,
2460665.500000000, A.D. 2024-Dec-21 00:00:00.0000, 7.451489374721213E+07, -9.180035294074869E+07, 9.111638963983528E+06,
2460672.500000000, A.D. 2024-Dec-28 00:00:00.0000, 9.105156190213843E+07, -7.667578888030051E+07, 9.039528915905934E+06,
2460679.500000000, A.D. 2025-Jan-04 00:00:00.0000, 1.050024105102731E+08, -5.936961042096262E+07, 8.710459932679268E+06,
2460686.500000000, A.D. 2025-Jan-11 00:00:00.0000, 1.160842990361959E+08, -4.043584580916258E+07, 8.143074576888680E+06,
2460693.500000000, A.D. 2025-Jan-18 00:00:00.0000, 1.241636980845725E+08, -2.045008007649135E+07, 7.364707560666775E+06,
2460700.500000000, A.D. 2025-Jan-25 00:00:00.0000, 1.292428005857344E+08, 3.620909870290663E+04, 6.408002898102314E+06,
2460707.500000000, A.D. 2025-Feb-01 00:00:00.0000, 1.314328560634414E+08, 2.052798089285608E+07, 5.307684042042149E+06,
2460714.500000000, A.D. 2025-Feb-08 00:00:00.0000, 1.309229750144227E+08, 4.060410152145539E+07, 4.097975986228900E+06,
2460721.500000000, A.D. 2025-Feb-15 00:00:00.0000, 1.279507240415916E+08, 5.992225671944989E+07, 2.810857030690625E+06,
$$EOE